[
    {
        "Altitude(m)": 553605.3857456935,
        "Argument of Periapsis(deg)": 0.013245982221427002,
        "Eccentricity": 0.0,
        "Inclination(deg)": 53.0,
        "Latitude(deg)": 7.057753466398371,
        "Longitude(deg)": 13.099489319666981,
        "Mean Anomaly(deg)": -188.90771426484486,
        "RAAN(deg)": 299.9802867370561,
        "Satellite Name": "Starlink Shell 1 1329",
        "Satellite Number": 1329,
        "Semi-Major Axis(m)": 6931778.249405717,
        "Time(s)": 380
    },
    {
        "Altitude(m)": 553632.7704419825,
        "Argument of Periapsis(deg)": 0.013594560700938237,
        "Eccentricity": 0.0,
        "Inclination(deg)": 53.0,
        "Latitude(deg)": 6.555797267005586,
        "Longitude(deg)": 13.440269561604511,
        "Mean Anomaly(deg)": -188.2808830612881,
        "RAAN(deg)": 299.97976796697856,
        "Satellite Name": "Starlink Shell 1 1329",
        "Satellite Number": 1329,
        "Semi-Major Axis(m)": 6931778.249405717,
        "Time(s)": 390
    },
    {
        "Altitude(m)": 553662.9408249368,
        "Argument of Periapsis(deg)": 0.013943139180449475,
        "Eccentricity": 0.0,
        "Inclination(deg)": 53.0,
        "Latitude(deg)": 6.053547822372437,
        "Longitude(deg)": 13.780281335891582,
        "Mean Anomaly(deg)": -187.65405185773142,
        "RAAN(deg)": 299.9792491969011,
        "Satellite Name": "Starlink Shell 1 1329",
        "Satellite Number": 1329,
        "Semi-Major Axis(m)": 6931778.249405717,
        "Time(s)": 400
    },
    {
        "Altitude(m)": 553695.905747371,
        "Argument of Periapsis(deg)": 0.014291717659960712,
        "Eccentricity": 0.0,
        "Inclination(deg)": 53.0,
        "Latitude(deg)": 5.551029000418243,
        "Longitude(deg)": 14.119584728775058,
        "Mean Anomaly(deg)": -187.0272206541747,
        "RAAN(deg)": 299.97873042682363,
        "Satellite Name": "Starlink Shell 1 1329",
        "Satellite Number": 1329,
        "Semi-Major Axis(m)": 6931778.249405717,
        "Time(s)": 410
    },
    {
        "Altitude(m)": 553731.6727412376,
        "Argument of Periapsis(deg)": 0.014640296139471948,
        "Eccentricity": 0.0,
        "Inclination(deg)": 53.0,
        "Latitude(deg)": 5.048264521435654,
        "Longitude(deg)": 14.458239010734083,
        "Mean Anomaly(deg)": -186.40038945061804,
        "RAAN(deg)": 299.97821165674617,
        "Satellite Name": "Starlink Shell 1 1329",
        "Satellite Number": 1329,
        "Semi-Major Axis(m)": 6931778.249405717,
        "Time(s)": 420
    },
    {
        "Altitude(m)": 553770.2480110987,
        "Argument of Periapsis(deg)": 0.014988874618983185,
        "Eccentricity": 0.0,
        "Inclination(deg)": 53.0,
        "Latitude(deg)": 4.545277970546343,
        "Longitude(deg)": 14.796303166531606,
        "Mean Anomaly(deg)": -185.77355824706123,
        "RAAN(deg)": 299.97769288666865,
        "Satellite Name": "Starlink Shell 1 1329",
        "Satellite Number": 1329,
        "Semi-Major Axis(m)": 6931778.249405717,
        "Time(s)": 430
    },
    {
        "Altitude(m)": 553811.6364282607,
        "Argument of Periapsis(deg)": 0.015337453098494424,
        "Eccentricity": 0.0,
        "Inclination(deg)": 53.0,
        "Latitude(deg)": 4.042092810030244,
        "Longitude(deg)": 15.133836425184773,
        "Mean Anomaly(deg)": -185.1467270435045,
        "RAAN(deg)": 299.97717411659124,
        "Satellite Name": "Starlink Shell 1 1329",
        "Satellite Number": 1329,
        "Semi-Major Axis(m)": 6931778.249405717,
        "Time(s)": 440
    },
    {
        "Altitude(m)": 553855.8415255588,
        "Argument of Periapsis(deg)": 0.01568603157800566,
        "Eccentricity": 0.0,
        "Inclination(deg)": 53.0,
        "Latitude(deg)": 3.5387323915344573,
        "Longitude(deg)": 15.470897276989298,
        "Mean Anomaly(deg)": -184.51989583994785,
        "RAAN(deg)": 299.9766553465138,
        "Satellite Name": "Starlink Shell 1 1329",
        "Satellite Number": 1329,
        "Semi-Major Axis(m)": 6931778.249405717,
        "Time(s)": 450
    },
    {
        "Altitude(m)": 553902.8654928486,
        "Argument of Periapsis(deg)": 0.0160346100575169,
        "Eccentricity": 0.0,
        "Inclination(deg)": 53.0,
        "Latitude(deg)": 3.035219968180882,
        "Longitude(deg)": 15.80754400334788,
        "Mean Anomaly(deg)": -183.89306463639107,
        "RAAN(deg)": 299.97613657643626,
        "Satellite Name": "Starlink Shell 1 1329",
        "Satellite Number": 1329,
        "Semi-Major Axis(m)": 6931778.249405717,
        "Time(s)": 460
    },
    {
        "Altitude(m)": 553952.7091731302,
        "Argument of Periapsis(deg)": 0.016383188537028134,
        "Eccentricity": 0.0,
        "Inclination(deg)": 53.0,
        "Latitude(deg)": 2.5315787065810573,
        "Longitude(deg)": 16.14383520653541,
        "Mean Anomaly(deg)": -183.26623343283444,
        "RAAN(deg)": 299.9756178063588,
        "Satellite Name": "Starlink Shell 1 1329",
        "Satellite Number": 1329,
        "Semi-Major Axis(m)": 6931778.249405717,
        "Time(s)": 470
    },
    {
        "Altitude(m)": 554005.3720593433,
        "Argument of Periapsis(deg)": 0.01673176701653937,
        "Eccentricity": 0.0,
        "Inclination(deg)": 53.0,
        "Latitude(deg)": 2.027831698765239,
        "Longitude(deg)": 16.479828826534586,
        "Mean Anomaly(deg)": -182.63940222927766,
        "RAAN(deg)": 299.97509903628134,
        "Satellite Name": "Starlink Shell 1 1329",
        "Satellite Number": 1329,
        "Semi-Major Axis(m)": 6931778.249405717,
        "Time(s)": 480
    },
    {
        "Altitude(m)": 554060.8522918761,
        "Argument of Periapsis(deg)": 0.017080345496050607,
        "Eccentricity": 0.0,
        "Inclination(deg)": 53.0,
        "Latitude(deg)": 1.5240019740455593,
        "Longitude(deg)": 16.815582670695452,
        "Mean Anomaly(deg)": -182.01257102572097,
        "RAAN(deg)": 299.9745802662039,
        "Satellite Name": "Starlink Shell 1 1329",
        "Satellite Number": 1329,
        "Semi-Major Axis(m)": 6931778.249405717,
        "Time(s)": 490
    },
    {
        "Altitude(m)": 554119.1466567006,
        "Argument of Periapsis(deg)": 0.017428923975561842,
        "Eccentricity": 0.0,
        "Inclination(deg)": 53.0,
        "Latitude(deg)": 1.0201125108186335,
        "Longitude(deg)": 17.151154943351294,
        "Mean Anomaly(deg)": -181.38573982216425,
        "RAAN(deg)": 299.9740614961264,
        "Satellite Name": "Starlink Shell 1 1329",
        "Satellite Number": 1329,
        "Semi-Major Axis(m)": 6931778.249405717,
        "Time(s)": 500
    },
    {
        "Altitude(m)": 554180.2505842234,
        "Argument of Periapsis(deg)": 0.01777750245507308,
        "Eccentricity": 0.0,
        "Inclination(deg)": 53.0,
        "Latitude(deg)": 0.516186248318888,
        "Longitude(deg)": 17.486603262525936,
        "Mean Anomaly(deg)": -180.7589086186076,
        "RAAN(deg)": 299.9735427260489,
        "Satellite Name": "Starlink Shell 1 1329",
        "Satellite Number": 1329,
        "Semi-Major Axis(m)": 6931778.249405717,
        "Time(s)": 510
    },
    {
        "Altitude(m)": 554244.1581487987,
        "Argument of Periapsis(deg)": 0.018126080934584315,
        "Eccentricity": 0.0,
        "Inclination(deg)": 53.0,
        "Latitude(deg)": 0.01224609833760284,
        "Longitude(deg)": 17.82198518948624,
        "Mean Anomaly(deg)": -180.1320774150508,
        "RAAN(deg)": 299.9730239559714,
        "Satellite Name": "Starlink Shell 1 1329",
        "Satellite Number": 1329,
        "Semi-Major Axis(m)": 6931778.249405717,
        "Time(s)": 520
    },
    {
        "Altitude(m)": 554310.8620689147,
        "Argument of Periapsis(deg)": 0.018474659414095554,
        "Eccentricity": 0.0,
        "Inclination(deg)": 53.0,
        "Latitude(deg)": -0.49168504308267064,
        "Longitude(deg)": 18.15735875827337,
        "Mean Anomaly(deg)": -179.50524621149407,
        "RAAN(deg)": 299.97250518589397,
        "Satellite Name": "Starlink Shell 1 1329",
        "Satellite Number": 1329,
        "Semi-Major Axis(m)": 6931778.249405717,
        "Time(s)": 530
    },
    {
        "Altitude(m)": 554380.3537080672,
        "Argument of Periapsis(deg)": 0.018823237893606792,
        "Eccentricity": 0.0,
        "Inclination(deg)": 53.0,
        "Latitude(deg)": -0.9955842839706481,
        "Longitude(deg)": 18.492781492347937,
        "Mean Anomaly(deg)": -178.8784150079374,
        "RAAN(deg)": 299.9719864158165,
        "Satellite Name": "Starlink Shell 1 1329",
        "Satellite Number": 1329,
        "Semi-Major Axis(m)": 6931778.249405717,
        "Time(s)": 540
    },
    {
        "Altitude(m)": 554452.6230763149,
        "Argument of Periapsis(deg)": 0.019171816373118027,
        "Eccentricity": 0.0,
        "Inclination(deg)": 53.0,
        "Latitude(deg)": -1.4994287247486346,
        "Longitude(deg)": 18.828310934103122,
        "Mean Anomaly(deg)": -178.25158380438074,
        "RAAN(deg)": 299.971467645739,
        "Satellite Name": "Starlink Shell 1 1329",
        "Satellite Number": 1329,
        "Semi-Major Axis(m)": 6931778.249405717,
        "Time(s)": 550
    },
    {
        "Altitude(m)": 554527.6588324965,
        "Argument of Periapsis(deg)": 0.019520394852629266,
        "Eccentricity": 0.0,
        "Inclination(deg)": 53.0,
        "Latitude(deg)": -2.0031954465461888,
        "Longitude(deg)": 19.164005174379696,
        "Mean Anomaly(deg)": -177.6247526008239,
        "RAAN(deg)": 299.9709488756616,
        "Satellite Name": "Starlink Shell 1 1329",
        "Satellite Number": 1329,
        "Semi-Major Axis(m)": 6931778.249405717,
        "Time(s)": 560
    }
]